[{"OBJECT_NAME":"STARLINK-30552","OBJECT_ID":"2023-153J","EPOCH":"2026-03-09T22:00:01.999584","MEAN_MOTION":15.2672356,"ECCENTRICITY":0.00011544,"INCLINATION":43.0006,"RA_OF_ASC_NODE":65.8896,"ARG_OF_PERICENTER":264.2372,"MEAN_ANOMALY":312.9153,"EPHEMERIS_TYPE":0,"CLASSIFICATION_TYPE":"U","NORAD_CAT_ID":57999,"ELEMENT_SET_NO":999,"REV_AT_EPOCH":578,"BSTAR":0.0013314841,"MEAN_MOTION_DOT":0.0003561,"MEAN_MOTION_DDOT":0},{"OBJECT_NAME":"SL-24 DEB","OBJECT_ID":"2013-066AL","EPOCH":"2026-03-09T22:28:39.180576","MEAN_MOTION":15.26992446,"ECCENTRICITY":0.00036318,"INCLINATION":97.3978,"RA_OF_ASC_NODE":75.9402,"ARG_OF_PERICENTER":273.216,"MEAN_ANOMALY":86.8663,"EPHEMERIS_TYPE":0,"CLASSIFICATION_TYPE":"U","NORAD_CAT_ID":39450,"ELEMENT_SET_NO":999,"REV_AT_EPOCH":67244,"BSTAR":0.00070559472,"MEAN_MOTION_DOT":0.00018651,"MEAN_MOTION_DDOT":0}]
